IRIDIUM 57              
1 25273U 98019B   24243.11505360  .00000870  00000+0  29680-3 0  9994
2 25273  86.3905 267.1452 0002254  90.8774 269.2681 14.35358108383238
IRIDIUM 63              
1 25286U 98021B   24243.52830381  .00001434  00000+0  48769-3 0  9996
2 25286  86.4023 203.8932 0002534  90.4166 269.7321 14.35935980382397
IRIDIUM 69              
1 25319U 98026A   24242.96076933  .00001213  00000+0  37776-3 0  9991
2 25319  86.3986 218.2840 0000223 149.6487 210.4725 14.40184859381134
IRIDIUM 71              
1 25320U 98026B   24243.43129926  .00001453  00000+0  45081-3 0  9991
2 25320  86.3995 212.8345 0002190  33.1951 326.9385 14.40498302381972
IRIDIUM 73              
1 25344U 98032C   24242.55616237  .00002180  00000+0  54877-3 0  9993
2 25344  86.4491 170.5626 0001863  86.5303 273.6115 14.50796124388263
IRIDIUM 82              
1 25467U 98051A   24243.07810172  .00027366  00000+0  12832-2 0  9999
2 25467  86.3702 250.6211 0117161 308.9219  50.1619 15.13549375379653
